{
  "type": "FeatureCollection",
  "features": [
    {
      "type": "Feature",
      "properties": {
        "norad_id": 33822,
        "name": "COSMOS 2251 DEB",
        "group": "cosmos-2251-debris",
        "lat": -73.48485153196528,
        "lon": 112.05721838635985,
        "alt_km": 773.5207982683905,
        "timestamp": "2025-12-16T19:34:24.661187+00:00",
        "meta_object_name": "COSMOS 2251 DEB",
        "meta_object_id": "1993-036BP",
        "meta_epoch": "2025-12-15T13:32:31.865280",
        "meta_mean_motion": 14.13084218,
        "meta_eccentricity": 0.01530652,
        "meta_inclination": 74.0691,
        "meta_ra_of_asc_node": 188.6961,
        "meta_arg_of_pericenter": 234.3446,
        "meta_mean_anomaly": 155.8468,
        "meta_ephemeris_type": 0,
        "meta_classification_type": "U",
        "meta_norad_cat_id": 33822,
        "meta_element_set_no": 999,
        "meta_rev_at_epoch": 86094,
        "meta_bstar": 0.00090750555,
        "meta_mean_motion_dot": 1.87e-05,
        "meta_mean_motion_ddot": 0,
        "tle_line1": "1 33822U 93036BP  25349.56425770  .00001870  00000+0  90751-3 0  9998",
        "tle_line2": "2 33822  74.0691 188.6961 0153065 234.3446 155.8468 14.13084218860948"
      },
      "geometry": {
        "type": "Point",
        "coordinates": [
          112.05721838635985,
          -73.48485153196528
        ]
      }
    },
    {
      "type": "Feature",
      "properties": {
        "norad_id": 33823,
        "name": "COSMOS 2251 DEB",
        "group": "cosmos-2251-debris",
        "lat": -62.65762582346919,
        "lon": -3.6259421043176134,
        "alt_km": 759.8963545342167,
        "timestamp": "2025-12-16T19:34:24.661199+00:00",
        "meta_object_name": "COSMOS 2251 DEB",
        "meta_object_id": "1993-036BQ",
        "meta_epoch": "2025-12-15T11:45:44.011872",
        "meta_mean_motion": 13.98957035,
        "meta_eccentricity": 0.02093465,
        "meta_inclination": 73.809,
        "meta_ra_of_asc_node": 144.5099,
        "meta_arg_of_pericenter": 269.2235,
        "meta_mean_anomaly": 146.3181,
        "meta_ephemeris_type": 0,
        "meta_classification_type": "U",
        "meta_norad_cat_id": 33823,
        "meta_element_set_no": 999,
        "meta_rev_at_epoch": 85648,
        "meta_bstar": 0.00079713253,
        "meta_mean_motion_dot": 1.362e-05,
        "meta_mean_motion_ddot": 0,
        "tle_line1": "1 33823U 93036BQ  25349.49009273  .00001362  00000+0  79713-3 0  9998",
        "tle_line2": "2 33823  73.8090 144.5099 0209346 269.2235 146.3181 13.98957035856488"
      },
      "geometry": {
        "type": "Point",
        "coordinates": [
          -3.6259421043176134,
          -62.65762582346919
        ]
      }
    },
    {
      "type": "Feature",
      "properties": {
        "norad_id": 33825,
        "name": "COSMOS 2251 DEB",
        "group": "cosmos-2251-debris",
        "lat": -36.47492290103044,
        "lon": -147.87460394900842,
        "alt_km": 703.9603813115491,
        "timestamp": "2025-12-16T19:34:24.661210+00:00",
        "meta_object_name": "COSMOS 2251 DEB",
        "meta_object_id": "1993-036BS",
        "meta_epoch": "2025-12-15T20:31:30.810144",
        "meta_mean_motion": 14.69790947,
        "meta_eccentricity": 0.00846905,
        "meta_inclination": 73.9853,
        "meta_ra_of_asc_node": 21.7328,
        "meta_arg_of_pericenter": 348.0359,
        "meta_mean_anomaly": 191.5066,
        "meta_ephemeris_type": 0,
        "meta_classification_type": "U",
        "meta_norad_cat_id": 33825,
        "meta_element_set_no": 999,
        "meta_rev_at_epoch": 88925,
        "meta_bstar": 0.00052900736,
        "meta_mean_motion_dot": 3.303e-05,
        "meta_mean_motion_ddot": 0,
        "tle_line1": "1 33825U 93036BS  25349.85521771  .00003303  00000+0  52901-3 0  9999",
        "tle_line2": "2 33825  73.9853  21.7328 0084690 348.0359 191.5066 14.69790947889256"
      },
      "geometry": {
        "type": "Point",
        "coordinates": [
          -147.87460394900842,
          -36.47492290103044
        ]
      }
    },
    {
      "type": "Feature",
      "properties": {
        "norad_id": 33826,
        "name": "COSMOS 2251 DEB",
        "group": "cosmos-2251-debris",
        "lat": -23.974792397207512,
        "lon": -130.4863391895736,
        "alt_km": 753.7788073889469,
        "timestamp": "2025-12-16T19:34:24.661221+00:00",
        "meta_object_name": "COSMOS 2251 DEB",
        "meta_object_id": "1993-036BT",
        "meta_epoch": "2025-12-15T11:45:57.504096",
        "meta_mean_motion": 14.5173711,
        "meta_eccentricity": 0.00828737,
        "meta_inclination": 74.0652,
        "meta_ra_of_asc_node": 44.7049,
        "meta_arg_of_pericenter": 88.1555,
        "meta_mean_anomaly": 32.2941,
        "meta_ephemeris_type": 0,
        "meta_classification_type": "U",
        "meta_norad_cat_id": 33826,
        "meta_element_set_no": 999,
        "meta_rev_at_epoch": 87809,
        "meta_bstar": 0.00055825428,
        "meta_mean_motion_dot": 2.317e-05,
        "meta_mean_motion_ddot": 0,
        "tle_line1": "1 33826U 93036BT  25349.49024889  .00002317  00000+0  55825-3 0  9990",
        "tle_line2": "2 33826  74.0652  44.7049 0082873  88.1555  32.2941 14.51737110878099"
      },
      "geometry": {
        "type": "Point",
        "coordinates": [
          -130.4863391895736,
          -23.974792397207512
        ]
      }
    },
    {
      "type": "Feature",
      "properties": {
        "norad_id": 33828,
        "name": "COSMOS 2251 DEB",
        "group": "cosmos-2251-debris",
        "lat": -7.261997828309862,
        "lon": -131.5772546161929,
        "alt_km": 734.104338331972,
        "timestamp": "2025-12-16T19:34:24.661232+00:00",
        "meta_object_name": "COSMOS 2251 DEB",
        "meta_object_id": "1993-036BV",
        "meta_epoch": "2025-12-15T18:59:24.293760",
        "meta_mean_motion": 14.44343366,
        "meta_eccentricity": 0.00294851,
        "meta_inclination": 74.0467,
        "meta_ra_of_asc_node": 232.4157,
        "meta_arg_of_pericenter": 304.9101,
        "meta_mean_anomaly": 123.5111,
        "meta_ephemeris_type": 0,
        "meta_classification_type": "U",
        "meta_norad_cat_id": 33828,
        "meta_element_set_no": 999,
        "meta_rev_at_epoch": 88357,
        "meta_bstar": 0.00033974912,
        "meta_mean_motion_dot": 1.149e-05,
        "meta_mean_motion_ddot": 0,
        "tle_line1": "1 33828U 93036BV  25349.79125340  .00001149  00000+0  33975-3 0  9993",
        "tle_line2": "2 33828  74.0467 232.4157 0029485 304.9101 123.5111 14.44343366883577"
      },
      "geometry": {
        "type": "Point",
        "coordinates": [
          -131.5772546161929,
          -7.261997828309862
        ]
      }
    },
    {
      "type": "Feature",
      "properties": {
        "norad_id": 33830,
        "name": "COSMOS 2251 DEB",
        "group": "cosmos-2251-debris",
        "lat": -14.548194481600033,
        "lon": -141.88594720920597,
        "alt_km": 613.5768026295164,
        "timestamp": "2025-12-16T19:34:24.661243+00:00",
        "meta_object_name": "COSMOS 2251 DEB",
        "meta_object_id": "1993-036BX",
        "meta_epoch": "2025-12-15T19:35:21.896160",
        "meta_mean_motion": 14.76936711,
        "meta_eccentricity": 0.0042468,
        "meta_inclination": 74.032,
        "meta_ra_of_asc_node": 224.3341,
        "meta_arg_of_pericenter": 343.7569,
        "meta_mean_anomaly": 89.938,
        "meta_ephemeris_type": 0,
        "meta_classification_type": "U",
        "meta_norad_cat_id": 33830,
        "meta_element_set_no": 999,
        "meta_rev_at_epoch": 89517,
        "meta_bstar": 0.00054704458,
        "meta_mean_motion_dot": 3.875e-05,
        "meta_mean_motion_ddot": 0,
        "tle_line1": "1 33830U 93036BX  25349.81622565  .00003875  00000+0  54704-3 0  9991",
        "tle_line2": "2 33830  74.0320 224.3341 0042468 343.7569  89.9380 14.76936711895177"
      },
      "geometry": {
        "type": "Point",
        "coordinates": [
          -141.88594720920597,
          -14.548194481600033
        ]
      }
    },
    {
      "type": "Feature",
      "properties": {
        "norad_id": 33832,
        "name": "COSMOS 2251 DEB",
        "group": "cosmos-2251-debris",
        "lat": 22.324853619907607,
        "lon": 15.455792118199906,
        "alt_km": 685.9597570222286,
        "timestamp": "2025-12-16T19:34:24.661253+00:00",
        "meta_object_name": "COSMOS 2251 DEB",
        "meta_object_id": "1993-036BZ",
        "meta_epoch": "2025-12-15T21:32:44.970144",
        "meta_mean_motion": 14.60686885,
        "meta_eccentricity": 0.00246156,
        "meta_inclination": 74.054,
        "meta_ra_of_asc_node": 203.9489,
        "meta_arg_of_pericenter": 234.3641,
        "meta_mean_anomaly": 138.1764,
        "meta_ephemeris_type": 0,
        "meta_classification_type": "U",
        "meta_norad_cat_id": 33832,
        "meta_element_set_no": 999,
        "meta_rev_at_epoch": 88471,
        "meta_bstar": 0.00088590389,
        "meta_mean_motion_dot": 4.307e-05,
        "meta_mean_motion_ddot": 0,
        "tle_line1": "1 33832U 93036BZ  25349.89774271  .00004307  00000+0  88590-3 0  9994",
        "tle_line2": "2 33832  74.0540 203.9489 0024615 234.3641 138.1764 14.60686885884717"
      },
      "geometry": {
        "type": "Point",
        "coordinates": [
          15.455792118199906,
          22.324853619907607
        ]
      }
    }
  ]
}